Location Number,Location Name,Location ID,Lat,Long,Address,URL
0,"Bethel, Alaska",1.06E+14,60.7897,-161.779,,https://www.instagram.com/explore/locations/106181876079678
1,"Napaskiak, Alaska",1.06E+14,60.70526,-161.76647,,https://www.instagram.com/explore/locations/105597346140091
2,"Kuiggayagaq, Alaska",2.95E+14,60.72378934,-161.7744128,,https://www.instagram.com/explore/locations/295109613985991
3,"Napakiak, Alaska",1.14E+14,60.6933,-161.973,,https://www.instagram.com/explore/locations/113970011946519
4,Napaskiak Airport,1.35E+14,60.7028,-161.778,,https://www.instagram.com/explore/locations/135453909819910
5,Sandpit,8.00E+14,60.7897,-161.779,,https://www.instagram.com/explore/locations/799867490165187
6,Napaskiak School,3.50E+14,60.7078407,-161.7608802,,https://www.instagram.com/explore/locations/350420625093238
7,St. Jacob's Church,3.96E+14,60.70833333,-161.7630556,,https://www.instagram.com/explore/locations/396246360502136
8,Beautiful Bethel,2.06E+15,,,,https://www.instagram.com/explore/locations/2064002453722657
9,The Kuskokwim River,7.51E+14,60.80735103,-161.8213337,"Front Street, Bethel, Alaska",https://www.instagram.com/explore/locations/750756748597018
10,Hangar Lake,1.11E+14,60.7934349,-161.7639423,,https://www.instagram.com/explore/locations/110698432318054
11,Fishcamp,2.04E+14,60.79054093,-161.7911492,"Bethel, Alaska",https://www.instagram.com/explore/locations/204348499607710
12,Yukon Kuskokwim Delta,3.53E+14,60.7897,-161.779,,https://www.instagram.com/explore/locations/353276881945537
13,Tundra Ridge,4.63E+14,60.80739352,-161.8165407,,https://www.instagram.com/explore/locations/462983120382650
14,Bethel Airport,1.10E+14,60.77861111,-161.8372222,Chief Eddy Hoffman Hwy,https://www.instagram.com/explore/locations/110181812366682
15,Qugcuun Memorial School,9.75E+14,60.72237792,-161.7697827,"115 Village Road, Oscarville, Alaska",https://www.instagram.com/explore/locations/975435069166225
16,Alaska Airlines - Bethel Airport (BET),1.49E+14,,,,https://www.instagram.com/explore/locations/149254108475601
17,Kasayulie,2.26E+14,60.7719847,-161.8810649,,https://www.instagram.com/explore/locations/225830024095165
18,Kisaralik River,1.45E+15,60.76970414,-161.8743298,,https://www.instagram.com/explore/locations/1449099975416150
19,Yupiit Piciryarait Cultural Center,3.15E+14,60.79073,-161.7715,,https://www.instagram.com/explore/locations/315495548645715
20,KYUK,3.58E+14,60.79122153,-161.7733028,"640 Radio St, Bethel, Alaska",https://www.instagram.com/explore/locations/358157087544895
21,Alaska Airlines - Bethel Airport BET,1.54E+14,60.78324159,-161.8395963,"3517 Chief Eddie Hoffman Hwy, Bethel, Alaska",https://www.instagram.com/explore/locations/153513151452758
22,Kuskokwim Campus UAF,1.31E+14,60.79152416,-161.7756341,"Box 368, Bethel, Alaska",https://www.instagram.com/explore/locations/131064616946204
23,Yukon Kuskokwim Fitness Center,2.15E+14,60.79552521,-161.7914059,"267 Akiachak Dr, Bethel, Alaska",https://www.instagram.com/explore/locations/214595658942178
24,Grant Aviation,1.88E+14,60.78976316,-161.8321372,,https://www.instagram.com/explore/locations/188041194557782
25,Studio 1,1.04E+14,60.76989095,-161.7224126,"401 Ridgecrest Drive, Bethel, Alaska",https://www.instagram.com/explore/locations/103592845266340
26,Yukon-Kuskokwim Health Corporation,1.45E+14,60.7886,-161.785,"Bethel, Alaska",https://www.instagram.com/explore/locations/144722742208899
27,Suurvik Cinema,1.01E+14,60.79288,-161.751679,"903 Chief Eddie Hoffman Highway, Bethel, Alaska",https://www.instagram.com/explore/locations/101055141426472
28,Lower Kuskokwim School District,9.34E+14,60.80223829,-161.7729465,"1004 Ron Edwards Memorial Drive, Bethel, Alaska",https://www.instagram.com/explore/locations/933751750041181
29,Yuut Elitnaurviat,3.31E+11,,,,https://www.instagram.com/explore/locations/330813967955
30,Swansonâ€™s Alaska LLC,1.65E+15,60.79277026,-161.7542605,"830 River Street, Bethel, Alaska",https://www.instagram.com/explore/locations/1645111119146349
31,Fili's Pizza,3.71E+14,60.79737996,-161.7760143,"110 Osage St, Bethel, Alaska",https://www.instagram.com/explore/locations/371487869716628
32,Yukon Delta National Wildlife Refuge,1.04E+15,60.78955245,-161.7802262,"807 Chief Eddie Hoffman Highway; PO Box 346, Bethel, Alaska",https://www.instagram.com/explore/locations/1039425076133926
33,Windy Willow Hair and Nail Salon,2.03E+15,60.79519622,-161.7863417,"258 Akiak, Bethel, Alaska",https://www.instagram.com/explore/locations/2034978180072488
34,Alba's Coffee Shop,3.82E+14,60.79401652,-161.7697096,"401 Ridgecrest Dr, Bethel, Alaska",https://www.instagram.com/explore/locations/381977008514322
35,Bethel Moravian Church,7.24E+14,60.7937945,-161.7656424,"331  3rd Ave, Bethel, Alaska",https://www.instagram.com/explore/locations/724038337723816
36,Kuskokwim Consortium Library,3.69E+11,60.79063961,-161.7739988,"420 State Hwy, Bethel, AK",https://www.instagram.com/explore/locations/369063786506
37,Bethel Evangelical Covenant Church,1.02E+11,60.79188767,-161.7697498,"165 Chief Eddie Hoffman Way, Bethel, Alaska",https://www.instagram.com/explore/locations/101573053883
38,Gladys Jung Elementary,8.77E+14,60.80429854,-161.7710991,"1007 Ron Edwards Memorial Dr, Bethel, AK ",https://www.instagram.com/explore/locations/877046505668918
39,Long House Bethel Hotel,1.56E+14,60.79472712,-161.7583004,751 3rd Ave,https://www.instagram.com/explore/locations/155775927816333
40,"Oscarville, Alaska",1.08E+14,60.721274,-161.76844,,https://www.instagram.com/explore/locations/108243302532876
41,Immaculate Conception Church,1.81E+14,60.79315615,-161.7545817,"775 2nd Ave, Bethel, AK",https://www.instagram.com/explore/locations/180692318623126
42,Bethel Hospital,1.18E+14,60.78818165,-161.7849594,"Bethel, AK",https://www.instagram.com/explore/locations/118271798249145
43,LKSD Bethel Regional high school,2.49E+14,60.79222222,-161.7558333,,https://www.instagram.com/explore/locations/249485568432439
44,Yute Commuter Service,1.87E+15,60.78206858,-161.8408048,"3551 Chief Eddie Hoffman Hwy, Bethel, Alaska",https://www.instagram.com/explore/locations/1873266326318535
45,Rich & Alice's Sunset Spot,1.54E+15,60.80734667,-161.79371,,https://www.instagram.com/explore/locations/1536144306630745
46,Seawall Bethel,1.52E+15,60.7904067,-161.7714392,,https://www.instagram.com/explore/locations/1521679637896851
47,Tobacco Shop,1.70E+14,60.7941335,-161.7517533,"960  3rd Ave, Bethel, AK",https://www.instagram.com/explore/locations/170437916960006
48,The Three Tortillas,1.14E+14,60.7936795,-161.7523502,"Bethel, Alaska",https://www.instagram.com/explore/locations/113586013695425
49,Fox Air,1.10E+14,60.79429,-161.76088,"3341 N Apron Rd, Bethel, Alaska",https://www.instagram.com/explore/locations/110032210793713
50,Bethel Seaplane Base,1.35E+14,60.7819,-161.743,,https://www.instagram.com/explore/locations/134754589890479
51,St. Sophia Orthodox Church,2.26E+15,60.80628111,-161.7874861,,https://www.instagram.com/explore/locations/2259226664334756
52,Yvonne Beach,1.72E+15,60.79421,-161.76078,"1360 Calista Drive, Bethel, AK",https://www.instagram.com/explore/locations/1716884945236575
53,AC Bethel,1.02E+14,60.7943209,-161.7696596,135 Ridgecrest St.,https://www.instagram.com/explore/locations/102310731583706
54,99559,6.16E+14,60.85080804,-161.7238704,,https://www.instagram.com/explore/locations/615766978499730
55,Red Basket,4.12E+14,60.79483077,-161.7584989,751 3rd Ave,https://www.instagram.com/explore/locations/411691568851540
56,Three Step Mountain,1.06E+14,60.7823277,-161.8017016,"Bethel, Alaska",https://www.instagram.com/explore/locations/105979732793955
57,Bethel Aquatic Center. Bethel Ak,5.27E+14,60.79623437,-161.7896199,,https://www.instagram.com/explore/locations/527477840691623
58,Bethel Courthouse,1.47E+14,60.79187824,-161.7718061,,https://www.instagram.com/explore/locations/147340588716628
59,BABA PIZZA & SUB,2.93E+14,60.78403402,-161.7999848,"1725 Chief Eddy Hoffman Hwy, Bethel, Alaska",https://www.instagram.com/explore/locations/293040107473750
60,Bethel Fire Station,3.89E+14,60.79050511,-161.7715734,,https://www.instagram.com/explore/locations/388854647808287
61,"AK  Catholics: Cev'armiut, Marayarmiut, Naparyarmiut",1.71E+14,,,,https://www.instagram.com/explore/locations/171170479750830
62,Alaska Hotel,2.19E+14,60.79536744,-161.7652679,411  4th Ave,https://www.instagram.com/explore/locations/219141534822671
63,White House Bed & Breakfast,4.68E+14,60.8003066,-161.7586626,,https://www.instagram.com/explore/locations/468488633346313
64,"Kwethluk, Alaska",1.07E+14,60.8023,-161.419,,https://www.instagram.com/explore/locations/107423432620902
