Location Number,Location Name,Location ID,Lat,Long,Address,URL
0,"Fairbanks, Alaska",1.05702E+14,64.8431,-147.7238,,https://www.instagram.com/explore/locations/105702359464339
1,Fort Wainwright,1.12669E+14,64.828608,-147.62309,,https://www.instagram.com/explore/locations/112669305412118
2,Tanana Lakes Recreation Area,1.06303E+15,64.79947132,-147.7364648,,https://www.instagram.com/explore/locations/1063026727171038
3,"North Pole, Alaska",1.05998E+14,64.751,-147.352,,https://www.instagram.com/explore/locations/105998039430784
4,Alaska,1.09188E+14,64.8431,-147.7238,,https://www.instagram.com/explore/locations/109188177131365
5,Chena Hot Springs,3.75918E+14,64.88785619,-147.6312134,,https://www.instagram.com/explore/locations/375917993146641
6,Arctic Circle Alaska,1.99543E+15,64.84361111,-147.7230556,"Coldfoot, Alaska",https://www.instagram.com/explore/locations/1995429217402614
7,Chena Hot Springs Resort,8.66007E+14,64.84357807,-147.7202347,"551 2nd Ave, Fairbanks, AK",https://www.instagram.com/explore/locations/866007076850504
8,"Santa's House - North Pole, AK",1.73302E+14,64.83755926,-147.8234549,,https://www.instagram.com/explore/locations/173301802687837
9,"Tanana Lakes Fairbanks, Ak",3.05169E+14,64.83720998,-147.7430661,,https://www.instagram.com/explore/locations/305168726310494
10,Alaska Artic Circle,1.4894E+14,64.8330137,-147.8473644,"Fairbanks, Alaska",https://www.instagram.com/explore/locations/148940358650405
11,Ice Museum,3.89601E+14,64.84368462,-147.7178013,510-598 2nd Ave,https://www.instagram.com/explore/locations/389601437744072
12,"Dalton Highway, Alaska Route 11",1.77633E+14,64.84287831,-147.7698883,"Fairbanks, Alaska",https://www.instagram.com/explore/locations/177633445581612
13,Fountainhead Antique Auto Museum,1.94025E+11,64.86046882,-147.7140082,"212 Wedgewood Dr, Fairbanks, Alaska",https://www.instagram.com/explore/locations/194024748369
14,Charlevoix Michigan,1.01143E+14,64.80547396,-147.6877112,,https://www.instagram.com/explore/locations/101142573367757
15,Creamers Field Trails,1.94336E+14,64.84109112,-147.8573488,,https://www.instagram.com/explore/locations/194336334032894
16,Creamer's Field Migratory Waterfowl Refuge,1.38956E+14,64.8708,-147.733,,https://www.instagram.com/explore/locations/138955772794851
17,"South Cushman, Fairbanks, Alaska",4.35306E+14,64.8276585,-147.7041655,,https://www.instagram.com/explore/locations/435306366516865
18,South Side,2.32404E+14,64.82271738,-147.7292791,2605 barnette street,https://www.instagram.com/explore/locations/232404133603080
19,Alaska Railroad Aurora Winter Train,1.20763E+14,64.85138562,-147.7404121,,https://www.instagram.com/explore/locations/120763181330988
20,Carlson Center,4.16268E+14,64.8046532,-147.6946919,,https://www.instagram.com/explore/locations/416267695061237
21,South Cushman Outdoor Shooting Range,1.16371E+14,64.79380891,-147.6965507,"Fairbanks, AK",https://www.instagram.com/explore/locations/116370655091470
22,Arctic National Wildlife Refuge,1.38284E+14,64.83938875,-147.7071474,,https://www.instagram.com/explore/locations/138283512868883
23,Alaska Axe Co. Axe-Throwing,1.08711E+14,64.81460727,-147.7457285,3501 Lathrop Street,https://www.instagram.com/explore/locations/108711490933590
24,University of Alaska Fairbanks,6828054843,64.85846068,-147.8295893,"505 South Chandalar Drive, Fairbanks, Alaska",https://www.instagram.com/explore/locations/6828054843
25,Pioneer Park,1.15132E+14,64.839076,-147.774788,,https://www.instagram.com/explore/locations/115131938499630
26,"Chena, Alaska",1.43388E+14,64.7956,-147.952,,https://www.instagram.com/explore/locations/143388225673506
27,"College, Alaska",1.0741E+14,64.8483,-147.827,,https://www.instagram.com/explore/locations/107410409288084
28,"Ester, Alaska",1.1239E+14,64.8557,-147.978,,https://www.instagram.com/explore/locations/112389562105486
29,Fairbanks International Airport,1.27004E+14,64.81758651,-147.8671834,"6450 Airport Way, Fairbanks, AK",https://www.instagram.com/explore/locations/127003674012987
30,"Chena Ridge, Alaska",5.06664E+14,64.7989,-148.024,,https://www.instagram.com/explore/locations/506663916104967
31,Riverboat Discovery,1.00858E+14,64.83008328,-147.8660762,"1975 Discovery Dr, Fairbanks, Alaska",https://www.instagram.com/explore/locations/100858119958816
32,UA Museum of the North Store,1.03542E+14,64.85799,-147.8369,"1962 Yukon Drive, Fairbanks, Alaska",https://www.instagram.com/explore/locations/103542444948568
33,Pike's Waterfront Lodge,95998821883,64.83120073,-147.8478617,"1850 Hoselton Rd, Fairbanks, Alaska",https://www.instagram.com/explore/locations/95998821883
34,"Arctic Circle, Dalton Highway",5.09208E+14,64.88626541,-147.9638672,"Mile 115 Dalton Highway, Fairbanks, Alaska",https://www.instagram.com/explore/locations/509207545772962
35,Trail Breaker Kennel,1.69097E+14,64.80916977,-147.9095475,"5880 Airport Industrial Rd, Fairbanks, Alaska",https://www.instagram.com/explore/locations/169097193104829
36,Ester Dome,1.42544E+14,64.8797222,-148.0530556,,https://www.instagram.com/explore/locations/142543735777672
37,Discovery 3 Steamboat,3.78568E+14,64.80078264,-147.9144283,,https://www.instagram.com/explore/locations/378567918845535
38,"Rosie Creek, Fairbanks, Alaska",3.78646E+14,64.76951025,-148.0460524,,https://www.instagram.com/explore/locations/378646235554365
39,"Just Short of Magic, LLC",4.60375E+14,64.83847309,-147.8436976,"5157 Chena Hot Springs Rd, Fairbanks, Alaska",https://www.instagram.com/explore/locations/460374837372960
40,Ester Dome Observatory,3.16371E+14,64.877182,-148.054566,"Ester, AK",https://www.instagram.com/explore/locations/316370718713983
41,Ice Alaska,1.3245E+11,64.84733299,-147.8064242,"1800 College Road, Fairbanks, Alaska",https://www.instagram.com/explore/locations/132449955327
42,Artic Circle Sign,3.88207E+14,64.83618427,-147.7591108,"Tolsona, Alaska",https://www.instagram.com/explore/locations/388206518002234
43,Alaska Airlines - Fairbanks Int'l Airport FAI,4.08121E+14,64.81757706,-147.8678387,"6450 Airport Way, Fairbanks, Alaska",https://www.instagram.com/explore/locations/408120705892102
44,Pedro Dome,1.17958E+14,64.83425295,-147.9056829,,https://www.instagram.com/explore/locations/117958164921431
45,Calypso Farm and Ecology Center,73416046977,64.839896,-148.134072,"4780 Old Nenana Hwy , Fairbanks, Alaska",https://www.instagram.com/explore/locations/73416046977
46,Growden Memorial Park Home of the Fairbanks Goldpanners,1.37998E+15,64.8253399,-147.7617838,"Wilbur St, Fairbanks, AK",https://www.instagram.com/explore/locations/1379977025435743
47,Pump House Restaurant,1.54823E+14,64.83136528,-147.8846829,"796 Chena Pump Rd,",https://www.instagram.com/explore/locations/154822771207765
48,Coldfoot Airport,2.32446E+14,64.82597,-147.77265,"2301 Peger Rd, Fairbanks, AK",https://www.instagram.com/explore/locations/232445907243493
49,University of Alaska at Fairbanks,2.77851E+14,64.856096,-147.842487,,https://www.instagram.com/explore/locations/277851038982702
50,Nenana,1.07804E+14,64.83865,-147.772339,,https://www.instagram.com/explore/locations/107803725913783
51,Pinnell Mountain,1.33577E+14,64.83334512,-147.7885703,"Fairbanks, Alaska",https://www.instagram.com/explore/locations/133576660018658
52,"Paws For Adventure Fairbanks, Alaska",1.83687E+14,64.84945202,-147.8084157,,https://www.instagram.com/explore/locations/183686785058701
53,Pike's Landing,3.33045E+14,64.83002327,-147.8488995,"4438 Airport Way, Fairbanks, Alaska",https://www.instagram.com/explore/locations/333045296726274
54,"Santa Claus House - North Pole, Alaska",2.08052E+11,64.75471632,-147.3430017,"101 Saint Nicholas Dr, North Pole, AK",https://www.instagram.com/explore/locations/208052351814
55,Santa's Workshop,1.8734E+15,64.75319321,-147.3534125,"325 S. Santa Claus Lane, North Pole, Alaska",https://www.instagram.com/explore/locations/1873403116311958
56,Morris Thompson Cultural and Visitors Center,2.25018E+14,64.84587631,-147.7119327,"101 Dunkel St, Fairbanks, Alaska",https://www.instagram.com/explore/locations/225017977526267
57,北極～～阿拉斯加,1.70223E+15,64.84361111,-147.7230556,,https://www.instagram.com/explore/locations/1702233430091253
58,Ice Nation,9.8306E+14,64.751,-147.352,,https://www.instagram.com/explore/locations/983060351802052
59,Artic Tundra,1.61224E+14,64.751,-147.352,,https://www.instagram.com/explore/locations/161223507934997
60,Paws for Adventure Sled Dog Kennel,1.21419E+14,64.8806708,-147.4528804,"Herning Rd., Fairbanks, Alaska",https://www.instagram.com/explore/locations/121419144597203
61,"North Pole, Alaska",3.4904E+14,64.78208833,-147.3536833,,https://www.instagram.com/explore/locations/349040379076520
62,Aurora Ice Bar,4.09932E+14,64.82640798,-147.5374669,,https://www.instagram.com/explore/locations/409932205742257
63,Σιβηρια,1.21974E+15,64.751,-147.352,,https://www.instagram.com/explore/locations/1219735071453342
64,Birch Hill Ski and Snowboard Area,1.08944E+14,64.858358,-147.6195164,"Fairbanks, Alaska",https://www.instagram.com/explore/locations/108943609171709
65,"Eielson Air Force Base, Alaska",1.08741E+14,64.6656,-147.101,,https://www.instagram.com/explore/locations/108740982487938
66,"Aurora Borealis, North Pole, Alaska",4.34495E+14,64.73553959,-147.3065727,,https://www.instagram.com/explore/locations/434495233277769
67,"Bradway-Clear Creek, North Pole, Alaska",3.4743E+14,64.77288413,-147.4756834,"Bradway-Clear Creek, North Pole, Alaska",https://www.instagram.com/explore/locations/347429812022491
68,Arctic Harvest,2.23837E+14,64.65449753,-147.148259,"Eielson Farm Road, North Pole, Alaska",https://www.instagram.com/explore/locations/223836534637064
69,"Badger, Alaska",6.87847E+14,64.80527778,-147.4102778,"North Pole, Alaska",https://www.instagram.com/explore/locations/687846894591347
70,Antler Academy,1.18748E+15,64.75337763,-147.3399371,2 N E 6th Ave,https://www.instagram.com/explore/locations/1187484031296555
71,North Pole High School,1.95784E+15,64.74662075,-147.3690242,"601 NPHS Boulevard, North Pole, Alaska",https://www.instagram.com/explore/locations/1957844457579125
72,D'Qar,1.52308E+15,64.74878,-147.3525699,,https://www.instagram.com/explore/locations/1523084181352212
73,Reindeer Academy,1.08384E+15,64.75333286,-147.3398268,,https://www.instagram.com/explore/locations/1083844535025279
74,Rod's Alaskan Guide Service,1.44096E+14,64.79132729,-147.3000821,"3355 Repp Rd, North Pole, Alaska",https://www.instagram.com/explore/locations/144095702626817
75,The Knotty Shop,2.83648E+15,64.75407993,-147.3415098,"North Pole, Alaska",https://www.instagram.com/explore/locations/2836481426377437
76,Monterey Lake,1.18244E+14,64.81908171,-147.6186374,,https://www.instagram.com/explore/locations/118244384894393
77,Birch Hill Nordic Ski Area,1.99817E+14,64.86022,-147.61057,,https://www.instagram.com/explore/locations/199817393382802
78,"Eileson AFB, AK",1.44841E+14,64.67390757,-147.1140257,"Eielson Air Force Base, Alaska",https://www.instagram.com/explore/locations/144840578940198
79,Pagoda Restaurant,2.82918E+11,64.7588871,-147.3547125,"431 N Santa Claus Ln, North Pole, AK",https://www.instagram.com/explore/locations/282918155854
80,Grapefruit Rocks,4.18815E+14,64.82586054,-147.6765411,,https://www.instagram.com/explore/locations/418815108150876
81,"Tamarack Woods, North Pole, Alaska",2.99634E+14,64.80945635,-147.5348971,,https://www.instagram.com/explore/locations/299634396822173
82,Eagle Summit,1.53131E+15,64.815605,-147.68754,"1016 Lakeview Ter , Fairbanks, AK",https://www.instagram.com/explore/locations/1531312743847166
83,"Wilderness Express Train to Denail Natl Park, Fairbanks Rail Station",1.36114E+14,64.85137142,-147.7406294,1745 Johansen expressway,https://www.instagram.com/explore/locations/136113633146211
84,Fairbanks AL,1.6214E+14,64.80073269,-147.9139656,,https://www.instagram.com/explore/locations/162139957256204
85,Tanana River - Southern Banks,1.77808E+14,64.81067171,-147.8811539,,https://www.instagram.com/explore/locations/177807535669354
86,Tanana Valley State Fair,1.9378E+11,64.86534256,-147.7561374,"College road, Fairbanks, Alaska",https://www.instagram.com/explore/locations/193779750723
87,Refine Crisis Stabilization Center,1.06849E+14,64.7800841,-147.6324627,"215 Cushman Street, Fairbanks, Alaska",https://www.instagram.com/explore/locations/106849238799420
88,Alaska Log Cabins on the Pond B&B,1.01917E+14,64.77963,-147.47864,1673 Volleyball Ct,https://www.instagram.com/explore/locations/101917277866524
89,Black Gold Express,1.29798E+15,64.7814049,-147.5060412,"1520 sailor court, North Pole, Alaska",https://www.instagram.com/explore/locations/1297981680215650
90,Clubsomnia,3.84497E+14,64.82899627,-147.5363561,,https://www.instagram.com/explore/locations/384497034906075
91,Fairbanks,2.13655E+14,64.7993649,-147.5396412,"1525 Henry St, Fairbanks",https://www.instagram.com/explore/locations/213655382696799
92,Denali Village,1.44376E+14,64.83393923,-147.6779585,"McKinley Park, Alaska",https://www.instagram.com/explore/locations/144375965594619
93,"Chena Indian Village, Fairbanks, Ak",3.65569E+14,64.83999312,-147.7125732,"Fairbanks, AK",https://www.instagram.com/explore/locations/365568933515672
94,Wiseman Alaska,1.24006E+14,64.80969354,-147.8523839,"Livengood, Alaska",https://www.instagram.com/explore/locations/124005674362985
95,Indian Camp,3.02544E+14,64.80091259,-147.9142018,"Fairbanks, Alaska",https://www.instagram.com/explore/locations/302543537119627
96,"Chena Marina, Fairbanks, Alaska",3.81351E+14,64.8123024,-147.921471,,https://www.instagram.com/explore/locations/381351218609727
97,Fish Camp On The Chena,2.16623E+14,64.80072983,-147.9155111,,https://www.instagram.com/explore/locations/216623228356036
98,Chena Marina Airport,1.33467E+14,64.81584359,-147.90923,Merganser Street,https://www.instagram.com/explore/locations/133467300029241
99,The PWR House,1.06059E+14,,,,https://www.instagram.com/explore/locations/106058657443790
100,"South Van Horn, Alaska",1.05263E+14,64.80944444,-147.7880556,,https://www.instagram.com/explore/locations/105263039825770
101,"Lakloey Park, North Pole, Alaska",1.30773E+14,64.828398,-147.5316582,,https://www.instagram.com/explore/locations/130772860411444
102,Lakloey,1.58708E+14,64.82735,-147.5259,1216 Range View Rd,https://www.instagram.com/explore/locations/158707724164151
103,CanoeAlaska,4.75432E+14,64.83131162,-147.884296,"1101 Peger Rd, Fairbanks, Alaska",https://www.instagram.com/explore/locations/475432482666634
104,Faith Baptist Church,1.1523E+14,64.82719869,-147.8905435,"910 Chena Pump Rd, Fairbanks, Alaska",https://www.instagram.com/explore/locations/115229771833832
105,"Palace Theater, Pioneer Park, Fairbanks",1.44407E+15,64.8338783,-147.8492671,,https://www.instagram.com/explore/locations/1444071695850293
106,Black Spruce Dog Sledding,6.64586E+14,64.84312756,-147.719881,"3850 Errol Ave, Fairbanks, Alaska",https://www.instagram.com/explore/locations/664586080225661
107,Gold Dredge,1.69356E+15,64.83364439,-147.8481085,"1975 Discovery Dr , Fairbanks, AK",https://www.instagram.com/explore/locations/1693560197553647
108,Northern Homes,5.61927E+14,64.8266525,-147.7932434,"3077 Davis Rd , Fairbanks, Alaska",https://www.instagram.com/explore/locations/561926550560685
109,Summit Coffee Co.,1.00103E+14,64.82695,-147.77948,"2509 Davis Road, Fairbanks, Alaska",https://www.instagram.com/explore/locations/100103304743149
110,"Horst Expediting & Remote Operations, Inc.",1.47714E+14,64.82696932,-147.7924137,"3049  Davis Rd , Fairbanks, Alaska",https://www.instagram.com/explore/locations/147713598620414
111,F & H Fitness Studio,2.13411E+14,64.8234499,-147.77981,2605 Picket Place,https://www.instagram.com/explore/locations/213410599067557
112,Sophie Station Suites,8.62416E+14,64.83151796,-147.8107101,1717 University Ave S,https://www.instagram.com/explore/locations/862416370450306
113,Fairbanks Youth Soccer Fields,1.02432E+14,64.82874181,-147.7557525,,https://www.instagram.com/explore/locations/102432089851232
114,Downtown Fairbanks,3.42252E+14,64.840973,-147.716884,Downtown Fairbanks!,https://www.instagram.com/explore/locations/342252452521182
115,Yukon River Camp,2.54154E+14,64.83934672,-147.7071165,"Lacey St, Fairbanks, AK",https://www.instagram.com/explore/locations/254154078480531
116,Birch Hill,1.03459E+14,64.8352,-147.70594,"Fairbanks, AK",https://www.instagram.com/explore/locations/103459429725717
117,Birch Lake,3.10143E+14,64.82072,-147.70407,"Milepost 305.2, Richardson Hwy, Fairbanks, AK",https://www.instagram.com/explore/locations/310143195662889
118,Cushman Shooting Range,1.50614E+14,64.82180018,-147.7175217,"Fairbanks, AK",https://www.instagram.com/explore/locations/150614321672728
119,The North Pole,1.64607E+14,64.84358974,-147.720317,"Fairbanks, AK",https://www.instagram.com/explore/locations/164606566906972
120,Arctic Light Elementary,4.83737E+14,64.82719845,-147.6908608,4167 Neely Rd,https://www.instagram.com/explore/locations/483737218400371
121,Antler Arch Webcam At Morris Thompson Center,1.54144E+14,64.84644687,-147.7141147,,https://www.instagram.com/explore/locations/154144414654427
122,Lathrop High School,1.08175E+14,64.8356,-147.733,901 Airport Way,https://www.instagram.com/explore/locations/108175175869567
123,Explore Fairbanks Alaska,1.51438E+11,64.84592039,-147.7122584,"101 Dunkel St Ste 111, Fairbanks, Alaska",https://www.instagram.com/explore/locations/151437835956
124,Chena Pump House,4.72866E+14,64.8512838,-147.7082089,,https://www.instagram.com/explore/locations/472866152729388
125,Lathrop Football Field,1.1332E+14,64.83451323,-147.7327841,,https://www.instagram.com/explore/locations/113320078754986
126,"1st Battalion, 24th Infantry Regiment",4.5982E+14,,,,https://www.instagram.com/explore/locations/459819984038977
127,Chena Bend Golf Course,1.81982E+14,64.83012021,-147.5767577,,https://www.instagram.com/explore/locations/181982105210074
128,Ladd Army Airfield,1.13543E+14,64.83969648,-147.607404,,https://www.instagram.com/explore/locations/113543398655914
129,Moose Mountain Ski Resort,2.73387E+15,64.845139,-147.60475,,https://www.instagram.com/explore/locations/2733872796626697
130,The Road Less Traveled,1.79375E+14,64.92107456,-147.5793136,,https://www.instagram.com/explore/locations/179375098884837
131,"IHG Army Hotel Ft. Wainwright, AK",1.6067E+14,64.82292899,-147.6312598,3402 Santiago Ave,https://www.instagram.com/explore/locations/160669670676821
132,Lakloey Hill North Pole,1.66954E+14,64.82690065,-147.516524,912 Ridgetop Rd,https://www.instagram.com/explore/locations/166953506800393
133,Riverview RV Park,1.11548E+14,64.83392569,-147.5151445,"1316 Badger Rd, North Pole, Alaska",https://www.instagram.com/explore/locations/111547565550450
134,Emily Ticasua Ivanhoff Brown Elementary School,1.05855E+14,64.82528162,-147.5322728,"Fairbanks, Alaska",https://www.instagram.com/explore/locations/105855499472426
135,Badger Den,1.44469E+14,64.8348631,-147.5034032,"1447 old Badger Rd., North Pole, Alaska",https://www.instagram.com/explore/locations/144469229594099
136,Welcome To Fairbanks Alaska!!!,1.20137E+14,64.84728455,-147.8648454,,https://www.instagram.com/explore/locations/120136871378121
137,Parks Highway,1.70463E+14,64.8563417,-147.9075637,"Fairbanks, Alaska",https://www.instagram.com/explore/locations/170462916326536
138,Georgeson Botanical Garden,1.33533E+14,64.8561,-147.859,,https://www.instagram.com/explore/locations/133533226686801
139,University of Alaska Museum - ALA Herbarium,2.99326E+14,64.85849493,-147.8422819,"University of Alaska Museum of the North, Fairbanks, Alaska",https://www.instagram.com/explore/locations/299325983732983
140,"Goldhill, Fairbanks, Alaska",4.15418E+14,64.86252137,-147.888343,,https://www.instagram.com/explore/locations/415418035197322
141,LARS - Robert G. White Large Animal Research Station,2.33151E+14,64.87833283,-147.8669172,"2220 Yankovich Rd, Fairbanks, Alaska",https://www.instagram.com/explore/locations/233151010034103
142,College Road,1.69493E+15,64.858086,-147.794272,"College Road, Fairbanks North Star",https://www.instagram.com/explore/locations/1694932963985422
143,"Fairbanks Industrial Park, Fairbanks, Alaska",2.8027E+14,64.85375898,-147.7882372,,https://www.instagram.com/explore/locations/280270168742968
144,"Aurora, Fairbanks, Alaska",2.90878E+14,64.85749808,-147.7648809,,https://www.instagram.com/explore/locations/290878194350775
145,UAF hiking & ski trails,1.02284E+14,64.86849965,-147.8248686,,https://www.instagram.com/explore/locations/102283809831560
146,"Creamer's Field Migration Station, Fairbanks, Alaska",1.44315E+15,64.8619751,-147.7410549,1300 College Rd,https://www.instagram.com/explore/locations/1443154089319050
147,Alaska Northern Lights Tours,1.4714E+15,64.851352,-147.807798,"3515 Sandvick, Fairbanks, Alaska",https://www.instagram.com/explore/locations/1471399799757050
148,Creamers Field State Game Refuge,1.33719E+14,64.86299239,-147.7375302,1300 College Rd,https://www.instagram.com/explore/locations/133718656672120
149,West Valley High School (Alaska),1.07808E+14,64.8514,-147.825,,https://www.instagram.com/explore/locations/107808469242363
150,"Northeast City, Fairbanks, Alaska",4.10737E+14,64.84778964,-147.6939355,,https://www.instagram.com/explore/locations/410736828980538
151,Tribe Jiu-jitsu Academy,1.10297E+14,64.85061,-147.70269,32 College Rd ,https://www.instagram.com/explore/locations/110296974904387
152,Chena Dome Trailhead,6.1671E+14,64.8585059,-147.7011044,"Fairbanks, Alaska",https://www.instagram.com/explore/locations/616709778404583
153,Wedgewood Wildlife Sanctuary,2.82069E+14,64.860534,-147.719424,"212 Wedgewood Dr , Fairbanks, AK",https://www.instagram.com/explore/locations/282068778898310
154,"Downtown Fairbanks, Alasla",1.30686E+14,64.8583684,-147.7020103,,https://www.instagram.com/explore/locations/130685824340396
155,Costco,3.2311E+14,64.85307,-147.70671,48 College Road,https://www.instagram.com/explore/locations/323109774933977
156,Just The Tips- Boreal Infused Eats + Tea,9.04837E+14,64.85059094,-147.7149867,"505 Illinois St. #3, Fairbanks, Alaska",https://www.instagram.com/explore/locations/904837349688145
157,The Banks Alehouse,1.50843E+15,64.85439099,-147.6845423,"1243 Old Steese Hwy, Fairbanks, Alaska",https://www.instagram.com/explore/locations/1508432742746212
158,The Vintage Junky,1.60283E+14,64.85041,-147.70505,"29 College Road, Suite #13, Fairbanks, Alaska",https://www.instagram.com/explore/locations/160283177991661
159,Cold Spot - for Healthy Pets,4.65677E+14,,,,https://www.instagram.com/explore/locations/465676750155382
160,WOW Nails,1.05836E+14,64.85015585,-147.6962433,"607 Old Steese Hwy suite A Fairbanks, AK 99701-3131, United States, Fairbanks, Alaska",https://www.instagram.com/explore/locations/105836465003863
161,Birch Hill Recreation Area,1.8232E+15,64.86991871,-147.6465429,"E Birch Hill Rd, Fairbanks North Star, AK",https://www.instagram.com/explore/locations/1823195567918105
162,BLM / Alaska Fire Sevice,1.46537E+14,64.8431901,-147.5913649,,https://www.instagram.com/explore/locations/146536898702912
163,Aurora Pointe Activity Center,7.85852E+14,64.86266774,-147.4580484,"570 Funk Rd, Fairbanks, Alaska",https://www.instagram.com/explore/locations/785852158441609
164,Trans-Alaska Pipeline,1.7556E+15,64.929064,-147.629615,"1671 Steese Hwy, Fairbanks, AK",https://www.instagram.com/explore/locations/1755602904719892
