Location Number,Location Name,Location ID,Lat,Long,Address,URL
0,Jeaneu Alaska,1.10751E+15,58.30046504,-134.4079796,,https://www.instagram.com/explore/locations/1107514725972357
1,"Juneau, Alaska",1.0966E+14,58.29973,-134.40679,,https://www.instagram.com/explore/locations/109659625720552
2,"Juneuo, Alaska",2.66058E+14,58.3003184,-134.404922,,https://www.instagram.com/explore/locations/266057667382598
3,Juneau Harbor,4.54257E+14,58.29589261,-134.4000185,,https://www.instagram.com/explore/locations/454257254606952
4,Downtown Juneau,1.6647E+15,58.304741,-134.392553,"Downtown Juneau, Juneau",https://www.instagram.com/explore/locations/1664704077078630
5,Port of Juneau -Alaska- USA,3.02508E+14,58.29783128,-134.4032621,"1600 Harbor Way, Juneau, Alaska",https://www.instagram.com/explore/locations/302508026502612
6,Juneau Waterfront,1.13358E+14,58.29939774,-134.4055102,,https://www.instagram.com/explore/locations/113357942090701
7,Alaska's Inside Passage,8.83197E+14,,,,https://www.instagram.com/explore/locations/883196715059286
8,"Áak'w Ḵwáan Territory - Tlingit Country (Juneau, Alaska)",8.68479E+14,58.30031,-134.40671,105 S. Seward St.,https://www.instagram.com/explore/locations/868479123282797
9,Tracy Arm Fjords National Park,2.01926E+14,58.28783926,-134.4094849,"Juneau, AK",https://www.instagram.com/explore/locations/201925590309972
10,Red Dog Saloon,1.0271E+14,58.299,-134.404,,https://www.instagram.com/explore/locations/102709889782895
11,Juneau Alaska. Whales!,1.75717E+14,58.2994419,-134.4051399,"Juneau, Alaska",https://www.instagram.com/explore/locations/175717139156913
12,Tracy's King Crab Shack,1.20448E+11,58.29716771,-134.4020452,"432 Franklin Street, Juneau, Alaska",https://www.instagram.com/explore/locations/120448230133
13,Gold Rush Sled Dog Summer Camp,4.34463E+14,58.30181152,-134.4197202,"Juneau, Alaska",https://www.instagram.com/explore/locations/434462703232575
14,"Radiance Of The Sea In Juneau, Ak",1.18247E+14,58.296491,-134.4019159,"Juneau, Alaska",https://www.instagram.com/explore/locations/118247394929176
15,Norwegian Bliss,6.25901E+14,58.289085,-134.39697,,https://www.instagram.com/explore/locations/625900731114158
16,Juneau Mendenhall Glacier Float and River Rafting Excursion,2.72083E+14,58.30125,-134.40854,"Juneau, AK",https://www.instagram.com/explore/locations/272083496526834
17,Dog Sled Discovery & Musher's Camp,4.0601E+14,58.304601,-134.406349,"634 6th St , Juneau, AK",https://www.instagram.com/explore/locations/406009709594406
18,Tracy Arm Fjord Glacier Cruises,4.9654E+14,58.29922,-134.40967,"76 Egan Dr, Juneau, AK",https://www.instagram.com/explore/locations/496539540772949
19,Mount Roberts Trail,2.08723E+15,58.30726,-134.401377,490 S Franklin St,https://www.instagram.com/explore/locations/2087225294906276
20,Gastineau Channel,1.42526E+14,58.30278883,-134.414118,,https://www.instagram.com/explore/locations/142525569097030
21,Alaska Cruise Northern Dream,5.30927E+14,58.29995083,-134.4073899,"Juneau, Alaska",https://www.instagram.com/explore/locations/530926946984716
22,Alaska Tales,7.37367E+14,58.29896,-134.40588,"Marine Way, Juneau, AK",https://www.instagram.com/explore/locations/737367209935392
23,Tracy Arm Adventure Bound Alaska,1.03437E+15,58.299325,-134.409624,"76 Egan Dr, Ste 110, Juneau, Alaska",https://www.instagram.com/explore/locations/1034372959927694
24,Juneau Taku Glacier Helicopter and Airboat Expedition Excursion,7.36981E+14,58.29924225,-134.4058225,"Juneau, AK",https://www.instagram.com/explore/locations/736980576692198
25,Juneau Borough,2.4468E+14,58.3,-134.4166667,Juneau Borough,https://www.instagram.com/explore/locations/244680102211980
26,Mendenhall Center,1.4403E+14,58.29966,-134.40659,,https://www.instagram.com/explore/locations/144030022298473
27,Juneau Tours and Whale Watch,1.7036E+14,58.29912519,-134.4096646,"190 MILL ST, Juneau, AK",https://www.instagram.com/explore/locations/170359843087383
28,Perseverance Trai,3.9329E+14,58.30689,-134.38494,"1001 Basin Rd, Juneau, AK",https://www.instagram.com/explore/locations/393289970855867
29,Seward Alaska,1.79335E+15,58.29449593,-134.4012295,,https://www.instagram.com/explore/locations/1793350054235078
30,"Juneua, Alaska",4.77921E+14,58.28211652,-134.3887744,,https://www.instagram.com/explore/locations/477921068888162
31,"Dawes Glacier, Alaska",1.19346E+14,58.2892318,-134.3982347,,https://www.instagram.com/explore/locations/119345775396671
32,West Juneau,1.10587E+14,58.291188,-134.437686,,https://www.instagram.com/explore/locations/110586932300870
33,Princess Cruises,3.94954E+14,58.28961592,-134.3970506,,https://www.instagram.com/explore/locations/394954440545858
34,"State of Alaska, Skagway, Juneau, and Ketchikan",7.80643E+14,58.28128806,-134.403518,"Juneau, Alaska",https://www.instagram.com/explore/locations/780642561975072
35,Holland America Lines,1.45639E+14,58.28689,-134.38689,"151 Mill St, Juneau, AK",https://www.instagram.com/explore/locations/145638855480150
36,"Celebrity Solstice in Juneau, Alaska",1.89724E+14,58.2894115,-134.3979805,"Juneau, Alaska",https://www.instagram.com/explore/locations/189723997855073
37,"Juneau, Alaska / USA Excursions",2.8089E+14,58.28931,-134.39637,"1110 Jacobsen Dr, Juneau, AK 99801, EE. UU., Juneau, Alaska",https://www.instagram.com/explore/locations/280890302312484
38,"Juneau, Al",2.35975E+14,58.28896668,-134.3968524,,https://www.instagram.com/explore/locations/235975073169757
39,"Gold Rush Dog Tours, LLC",1.90317E+11,58.30175,-134.41149,"500 Sheep Creek Mine Rd, Juneau, Alaska",https://www.instagram.com/explore/locations/190316583410
40,Port of Whittier Alaska USA,1.48503E+15,58.2924727,-134.3965279,,https://www.instagram.com/explore/locations/1485034738456256
41,Princess Cruise Lines,1.53384E+14,58.29357994,-134.396621,"704 S Franklin St , Juneau, AK",https://www.instagram.com/explore/locations/153384211693277
42,"The Disney Wonder- Juneau, Alaska",2.13756E+14,58.28850659,-134.3977296,"Juneau, AK",https://www.instagram.com/explore/locations/213755641998248
43,Mount Roberts Tramway,1.42772E+14,58.2968548,-134.3870635,490 S Franklin St,https://www.instagram.com/explore/locations/142771689072686
44,Mount Roberts,1.44451E+14,58.28583149,-134.327935,,https://www.instagram.com/explore/locations/144450895565170
45,Mt Roberts Nature Center,2.31413E+14,58.2898885,-134.3844223,"1330 Eastaugh Way, Juneau, AK",https://www.instagram.com/explore/locations/231412790965532
46,Gastineau Peak,1.59018E+15,58.2906,-134.344,,https://www.instagram.com/explore/locations/1590184314533219
47,The Shrine Of St Therese,2.50462E+14,58.39152587,-134.5703347,,https://www.instagram.com/explore/locations/250462445055797
48,Juneau Tongass National Park,3.13025E+14,58.31204043,-134.445375,,https://www.instagram.com/explore/locations/313024702113663
49,Juneau Jazz & Classics,2.3466E+11,58.29982061,-134.4132852,"Juneau, Alaska",https://www.instagram.com/explore/locations/234660299745
50,"Gold Creek (Juneau, Alaska)",5.06518E+14,58.298824,-134.419913,,https://www.instagram.com/explore/locations/506517532723084
51,Sheep Creek Beach,1.56848E+15,58.29303185,-134.3959703,,https://www.instagram.com/explore/locations/1568478640035975
52,Cope Park,1.53015E+14,58.30443518,-134.413392,"Cope Park Rd., Juneau, AK",https://www.instagram.com/explore/locations/153014554720797
53,Alaska State Capitol,1.43343E+14,58.30205431,-134.4101554,,https://www.instagram.com/explore/locations/143343429010077
54,"Ms Eurodam In Juneau, Ak",3.12255E+14,58.298695,-134.406061,,https://www.instagram.com/explore/locations/312255199603344
55,Juno Ak,3.49204E+14,58.2959017,-134.4000385,,https://www.instagram.com/explore/locations/349204138501044
56,Taku Harbor,3.36101E+14,58.29589261,-134.4000185,"Juneau, Alaska",https://www.instagram.com/explore/locations/336101310340198
57,"Misty Fjord National Park, Ketchikan",6.17869E+14,58.29629399,-134.4004473,"Juneau, Alaska",https://www.instagram.com/explore/locations/617869408237551
58,Taku Store,1.46953E+14,58.29540996,-134.3991448,"550 S Franklin St, Juneau, AK",https://www.instagram.com/explore/locations/146952528668167
59,Cable Car Juneau Alaska,6.5167E+14,58.2965537,-134.4001728,,https://www.instagram.com/explore/locations/651669508256672
60,Timberline Bar and Grill,4.44796E+14,58.29682317,-134.3869505,490 S Franklin St,https://www.instagram.com/explore/locations/444795782227263
61,Father Brown's Cross,1.8287E+14,58.29592028,-134.3816339,"Juneau, Alaska",https://www.instagram.com/explore/locations/182870132642799
62,Juneau Arts & Culture Center,85365654020,58.29988,-134.41333,"350 Whittier St, Juneau, Alaska",https://www.instagram.com/explore/locations/85365654020
63,Pucker Wilson's,2.11216E+15,58.2998,-134.4132,350 Whittier Street,https://www.instagram.com/explore/locations/2112164519018131
64,"Whale City Park, Juneau Ak",4.65183E+14,58.3006417,-134.4151657,,https://www.instagram.com/explore/locations/465182760572049
65,JAHC,1.92704E+14,58.29966965,-134.4134223,"350 Whittier St, Juneau, AK",https://www.instagram.com/explore/locations/192704364075494
66,Juneau Arts and Humanities,1.74987E+14,58.29964757,-134.413371,"350 Whittier St, Ste 101, Juneau, Alaska",https://www.instagram.com/explore/locations/174987019249340
67,Bullwinkle's Pizza Parlor Downtown,1.6307E+15,58.3004867,-134.4124675,"318 Willoughby Ave, Juneau, Alaska",https://www.instagram.com/explore/locations/1630702503836001
68,Juneau Capital Building,1.83343E+14,58.30166667,-134.4197222,,https://www.instagram.com/explore/locations/183342781706404
69,Wings Airways/Taku Glacier Lodge,1.86366E+11,58.29943,-134.40728,"2 Marine Way Ste 175, Juneau, Alaska",https://www.instagram.com/explore/locations/186365792898
70,The Hangar on the Wharf,1.78389E+11,58.29929285,-134.4079795,"2 Marine Way, Ste 106, Juneau, Alaska",https://www.instagram.com/explore/locations/178389154402
71,Sealaska Heritage Institute,1.33439E+14,58.30041,-134.40689,"105 S Seward St, Ste 201, Juneau, Alaska",https://www.instagram.com/explore/locations/133438590063380
72,Douglas Boat Harbor,1.6533E+14,58.29941628,-134.4071028,,https://www.instagram.com/explore/locations/165329950298229
73,Barnaby Brewing Company,1.69471E+15,58.29980173,-134.4060865,"165 Shattuck Way, Juneau, Alaska",https://www.instagram.com/explore/locations/1694714070768567
74,Juneau City Hall,2.61431E+14,58.29954909,-134.4063497,,https://www.instagram.com/explore/locations/261431467300875
75,Pel'menis,3.1039E+14,58.29943,-134.40728,#2 Marine Way,https://www.instagram.com/explore/locations/310389622354430
76,Ebner Falls,1.19953E+14,58.30790513,-134.3815837,,https://www.instagram.com/explore/locations/119953184720227
77,Flume Trail Juneau Alaska,4.20394E+14,58.3070166,-134.4048757,,https://www.instagram.com/explore/locations/420393581350153
78,Alaska Governor's Mansion,1.03103E+14,58.302652,-134.414956,120 4th St,https://www.instagram.com/explore/locations/103102873063269
79,Basin Road,1.86981E+15,58.30299125,-134.4081228,,https://www.instagram.com/explore/locations/1869809763313194
80,House of Wickersham,8.10822E+14,58.30361111,-134.4113889,,https://www.instagram.com/explore/locations/810822002313195
81,Last Chance Mining Museum,1.48908E+15,58.30666667,-134.3852778,,https://www.instagram.com/explore/locations/1489082764710118
82,"Starr Hill, Juneau",2.56543E+14,58.3042,-134.404,,https://www.instagram.com/explore/locations/256542571197091
83,"Cathedral of the Nativity of the Blessed Virgin Mary (Juneau, Alaska)",3.57203E+14,58.3034,-134.408,,https://www.instagram.com/explore/locations/357203047648628
84,Chicken Yard Park,1.43658E+14,58.30428434,-134.4058791,"Juneau, AK",https://www.instagram.com/explore/locations/143657552643739
85,Perserverance Trail,2.59104E+14,58.31633691,-134.3337805,,https://www.instagram.com/explore/locations/259104294270305
86,Mount Juneau,1.02626E+14,58.3194,-134.406,,https://www.instagram.com/explore/locations/102625853123974
87,Mt. Juneau Summit,3.48967E+14,58.31898978,-134.4084512,,https://www.instagram.com/explore/locations/348966708568129
88,Jualpa Mining Camp,8.63346E+14,58.30702756,-134.3854419,"1001 Basin Rd , Juneau, AK",https://www.instagram.com/explore/locations/863345770379968
